{
  "norad_id": 54097,
  "name": "STARLINK-5197",
  "history": [
    {
      "epoch": "2026-03-28T18:03:15.205248Z",
      "apogee_km": 540.638388317002,
      "perigee_km": 538.8566179843692,
      "latitude_deg": -2.526323845026581e-05,
      "longitude_deg": 126.49142952758172,
      "height_km": 540.7664832692896,
      "semi_major_axis_km": 6917.884503150685,
      "eccentricity": 0.00012878,
      "inclination_deg": 53.2172,
      "raan_deg": 223.473,
      "arg_perigee_deg": 97.9474,
      "mean_anomaly_deg": 262.1664,
      "mean_motion_rev_day": 15.08838654
    },
    {
      "epoch": "2026-03-29T02:00:10.844640Z",
      "apogee_km": 540.6099152274974,
      "perigee_km": 538.9039625821633,
      "latitude_deg": -3.3596735274666295e-05,
      "longitude_deg": 5.446447324153623,
      "height_km": 540.6548265601401,
      "semi_major_axis_km": 6917.89393890483,
      "eccentricity": 0.0001233,
      "inclination_deg": 53.2171,
      "raan_deg": 221.9863,
      "arg_perigee_deg": 90.1367,
      "mean_anomaly_deg": 269.9766,
      "mean_motion_rev_day": 15.08835567
    },
    {
      "epoch": "2026-03-30T01:50:58.426368Z",
      "apogee_km": 540.6543792338525,
      "perigee_km": 538.9132769198422,
      "latitude_deg": -1.3236688064488003e-05,
      "longitude_deg": 2.3080627881185802,
      "height_km": 540.6416018618124,
      "semi_major_axis_km": 6917.920828076847,
      "eccentricity": 0.00012584,
      "inclination_deg": 53.2161,
      "raan_deg": 217.5255,
      "arg_perigee_deg": 87.5026,
      "mean_anomaly_deg": 272.611,
      "mean_motion_rev_day": 15.0882677
    },
    {
      "epoch": "2026-03-30T14:34:03.221472Z",
      "apogee_km": 540.6538088585239,
      "perigee_km": 538.8396630276093,
      "latitude_deg": 1.9553364200402967e-05,
      "longitude_deg": 168.63689853732527,
      "height_km": 540.5624778384818,
      "semi_major_axis_km": 6917.883735943066,
      "eccentricity": 0.00013112,
      "inclination_deg": 53.2157,
      "raan_deg": 215.1466,
      "arg_perigee_deg": 84.9493,
      "mean_anomaly_deg": 275.1649,
      "mean_motion_rev_day": 15.08838905
    },
    {
      "epoch": "2026-03-31T14:24:49.813920Z",
      "apogee_km": 540.6732560772034,
      "perigee_km": 538.7528609009678,
      "latitude_deg": -1.0791656239877083e-05,
      "longitude_deg": 165.50471032824703,
      "height_km": 540.423179068474,
      "semi_major_axis_km": 6917.850058489085,
      "eccentricity": 0.0001388,
      "inclination_deg": 53.2166,
      "raan_deg": 210.6879,
      "arg_perigee_deg": 78.8606,
      "mean_anomaly_deg": 281.2542,
      "mean_motion_rev_day": 15.08849923
    },
    {
      "epoch": "2026-04-01T14:15:37.832832Z",
      "apogee_km": 540.6428671739122,
      "perigee_km": 538.9175386235092,
      "latitude_deg": 4.123236761015613e-06,
      "longitude_deg": 162.36389589526675,
      "height_km": 540.57193836525,
      "semi_major_axis_km": 6917.9172028987105,
      "eccentricity": 0.0001247,
      "inclination_deg": 53.2173,
      "raan_deg": 206.2265,
      "arg_perigee_deg": 83.0674,
      "mean_anomaly_deg": 277.046,
      "mean_motion_rev_day": 15.08827956
    },
    {
      "epoch": "2026-04-02T17:17:10.164192Z",
      "apogee_km": 540.7547040639629,
      "perigee_km": 538.7028650722596,
      "latitude_deg": 1.1638399026963877e-05,
      "longitude_deg": 110.81348457858422,
      "height_km": 540.5766997809623,
      "semi_major_axis_km": 6917.865784568111,
      "eccentricity": 0.0001483,
      "inclination_deg": 53.2156,
      "raan_deg": 201.1707,
      "arg_perigee_deg": 87.3501,
      "mean_anomaly_deg": 272.7661,
      "mean_motion_rev_day": 15.08844778
    },
    {
      "epoch": "2026-04-02T17:17:10.165056Z",
      "apogee_km": 540.7544965279885,
      "perigee_km": 538.7030726082339,
      "latitude_deg": 1.4401835443221796e-05,
      "longitude_deg": 110.81348302353908,
      "height_km": 540.5767093763934,
      "semi_major_axis_km": 6917.865784568111,
      "eccentricity": 0.00014827,
      "inclination_deg": 53.2156,
      "raan_deg": 201.1707,
      "arg_perigee_deg": 87.3501,
      "mean_anomaly_deg": 272.7661,
      "mean_motion_rev_day": 15.08844778
    },
    {
      "epoch": "2026-04-03T13:57:11.211264Z",
      "apogee_km": 540.3962644927851,
      "perigee_km": 539.0874018175527,
      "latitude_deg": 1.2939406480322064e-06,
      "longitude_deg": 156.09615245246482,
      "height_km": 540.574462245085,
      "semi_major_axis_km": 6917.878833155169,
      "eccentricity": 9.46e-05,
      "inclination_deg": 53.2155,
      "raan_deg": 197.3065,
      "arg_perigee_deg": 84.4367,
      "mean_anomaly_deg": 275.6733,
      "mean_motion_rev_day": 15.08840509
    },
    {
      "epoch": "2026-04-05T13:38:46.676256Z",
      "apogee_km": 540.7388041061758,
      "perigee_km": 538.8100903946834,
      "latitude_deg": 6.946117424588564e-06,
      "longitude_deg": 149.81859435709436,
      "height_km": 540.8849868155187,
      "semi_major_axis_km": 6917.91144725043,
      "eccentricity": 0.0001394,
      "inclination_deg": 53.2177,
      "raan_deg": 188.3854,
      "arg_perigee_deg": 102.8705,
      "mean_anomaly_deg": 257.2443,
      "mean_motion_rev_day": 15.08829839
    },
    {
      "epoch": "2026-04-07T14:55:42.934944Z",
      "apogee_km": 540.5731245758288,
      "perigee_km": 538.8671810019496,
      "latitude_deg": -6.129646047689144e-05,
      "longitude_deg": 119.34077543998247,
      "height_km": 540.7002607673047,
      "semi_major_axis_km": 6917.857152788889,
      "eccentricity": 0.0001233,
      "inclination_deg": 53.2176,
      "raan_deg": 179.166,
      "arg_perigee_deg": 95.6642,
      "mean_anomaly_deg": 264.449,
      "mean_motion_rev_day": 15.08847602
    },
    {
      "epoch": "2026-04-07T14:55:42.935808Z",
      "apogee_km": 540.5728478615429,
      "perigee_km": 538.8674577162365,
      "latitude_deg": -5.762394833667053e-05,
      "longitude_deg": 119.3407745607002,
      "height_km": 540.7002334566979,
      "semi_major_axis_km": 6917.857152788889,
      "eccentricity": 0.00012326,
      "inclination_deg": 53.2176,
      "raan_deg": 179.166,
      "arg_perigee_deg": 95.6642,
      "mean_anomaly_deg": 264.449,
      "mean_motion_rev_day": 15.08847602
    },
    {
      "epoch": "2026-04-08T11:35:43.567296Z",
      "apogee_km": 540.6031303411137,
      "perigee_km": 538.8278710323875,
      "latitude_deg": -1.2673004116850648e-06,
      "longitude_deg": 164.62452561755924,
      "height_km": 540.5737887668658,
      "semi_major_axis_km": 6917.85250068675,
      "eccentricity": 0.00012831,
      "inclination_deg": 53.2165,
      "raan_deg": 175.3011,
      "arg_perigee_deg": 87.5829,
      "mean_anomaly_deg": 272.531,
      "mean_motion_rev_day": 15.08849124
    },
    {
      "epoch": "2026-04-09T11:26:31.494624Z",
      "apogee_km": 540.5868355207795,
      "perigee_km": 538.9228058222352,
      "latitude_deg": 5.7602187362463304e-06,
      "longitude_deg": 161.48458368883223,
      "height_km": 540.6529987097795,
      "semi_major_axis_km": 6917.891820671507,
      "eccentricity": 0.00012027,
      "inclination_deg": 53.2158,
      "raan_deg": 170.8402,
      "arg_perigee_deg": 90.1672,
      "mean_anomaly_deg": 269.9458,
      "mean_motion_rev_day": 15.0883626
    }
  ]
}